{
  "type": "FeatureCollection",
  "properties": {
    "source_pdf": "Design 1 Generic A_Post-Val-Day  _ Floor Plan 2026-Model.pdf",
    "page": 1,
    "coord_system": "PDF_points_top_left",
    "min_area_frac": 2e-06
  },
  "features": [
    {
      "type": "Feature",
      "properties": {
        "id": 1
      },
      "geometry": {
        "type": "Polygon",
        "coordinates": [
          [
            [
              650.0,
              222.5
            ],
            [
              651.0,
              225.25
            ],
            [
              671.0,
              225.25
            ],
            [
              671.75,
              223.75
            ],
            [
              671.0,
              222.5
            ],
            [
              650.0,
              222.5
            ]
          ]
        ]
      }
    },
    {
      "type": "Feature",
      "properties": {
        "id": 2
      },
      "geometry": {
        "type": "Polygon",
        "coordinates": [
          [
            [
              649.0,
              323.75
            ],
            [
              649.0,
              339.25
            ],
            [
              666.5,
              339.25
            ],
            [
              666.25,
              323.75
            ],
            [
              649.0,
              323.75
            ]
          ]
        ]
      }
    },
    {
      "type": "Feature",
      "properties": {
        "id": 3
      },
      "geometry": {
        "type": "Polygon",
        "coordinates": [
          [
            [
              481.25,
              329.25
            ],
            [
              480.5,
              329.75
            ],
            [
              480.5,
              331.25
            ],
            [
              481.75,
              331.75
            ],
            [
              482.75,
              331.0
            ],
            [
              482.75,
              330.0
            ],
            [
              482.0,
              329.25
            ],
            [
              481.25,
              329.25
            ]
          ]
        ]
      }
    },
    {
      "type": "Feature",
      "properties": {
        "id": 4
      },
      "geometry": {
        "type": "Polygon",
        "coordinates": [
          [
            [
              515.5,
              335.5
            ],
            [
              514.25,
              336.75
            ],
            [
              514.25,
              339.25
            ],
            [
              515.25,
              340.25
            ],
            [
              516.75,
              340.25
            ],
            [
              518.0,
              339.0
            ],
            [
              517.75,
              336.25
            ],
            [
              516.75,
              335.5
            ],
            [
              515.5,
              335.5
            ]
          ]
        ]
      }
    },
    {
      "type": "Feature",
      "properties": {
        "id": 5
      },
      "geometry": {
        "type": "Polygon",
        "coordinates": [
          [
            [
              481.0,
              337.0
            ],
            [
              480.5,
              337.5
            ],
            [
              480.5,
              339.0
            ],
            [
              481.75,
              339.5
            ],
            [
              482.75,
              338.75
            ],
            [
              482.75,
              337.75
            ],
            [
              482.0,
              337.0
            ],
            [
              481.0,
              337.0
            ]
          ]
        ]
      }
    },
    {
      "type": "Feature",
      "properties": {
        "id": 6
      },
      "geometry": {
        "type": "Polygon",
        "coordinates": [
          [
            [
              481.0,
              344.75
            ],
            [
              480.5,
              345.25
            ],
            [
              480.5,
              346.75
            ],
            [
              481.75,
              347.25
            ],
            [
              482.75,
              346.5
            ],
            [
              482.75,
              345.5
            ],
            [
              482.0,
              344.75
            ],
            [
              481.0,
              344.75
            ]
          ]
        ]
      }
    },
    {
      "type": "Feature",
      "properties": {
        "id": 7
      },
      "geometry": {
        "type": "Polygon",
        "coordinates": [
          [
            [
              481.0,
              352.5
            ],
            [
              480.5,
              353.0
            ],
            [
              480.5,
              354.5
            ],
            [
              481.75,
              355.0
            ],
            [
              482.75,
              354.25
            ],
            [
              482.75,
              353.25
            ],
            [
              482.0,
              352.5
            ],
            [
              481.0,
              352.5
            ]
          ]
        ]
      }
    },
    {
      "type": "Feature",
      "properties": {
        "id": 8
      },
      "geometry": {
        "type": "Polygon",
        "coordinates": [
          [
            [
              481.0,
              360.5
            ],
            [
              480.5,
              361.0
            ],
            [
              480.5,
              362.5
            ],
            [
              481.75,
              363.0
            ],
            [
              482.75,
              362.25
            ],
            [
              482.75,
              361.25
            ],
            [
              482.0,
              360.5
            ],
            [
              481.0,
              360.5
            ]
          ]
        ]
      }
    },
    {
      "type": "Feature",
      "properties": {
        "id": 9
      },
      "geometry": {
        "type": "Polygon",
        "coordinates": [
          [
            [
              481.0,
              368.25
            ],
            [
              480.5,
              368.75
            ],
            [
              480.5,
              370.25
            ],
            [
              481.75,
              370.75
            ],
            [
              482.75,
              370.0
            ],
            [
              482.75,
              369.0
            ],
            [
              482.0,
              368.25
            ],
            [
              481.0,
              368.25
            ]
          ]
        ]
      }
    },
    {
      "type": "Feature",
      "properties": {
        "id": 10
      },
      "geometry": {
        "type": "Polygon",
        "coordinates": [
          [
            [
              463.75,
              393.75
            ],
            [
              463.5,
              410.5
            ],
            [
              471.25,
              411.0
            ],
            [
              471.5,
              394.0
            ],
            [
              463.75,
              393.75
            ]
          ]
        ]
      }
    },
    {
      "type": "Feature",
      "properties": {
        "id": 11
      },
      "geometry": {
        "type": "Polygon",
        "coordinates": [
          [
            [
              639.0,
              407.75
            ],
            [
              639.25,
              415.5
            ],
            [
              648.75,
              415.5
            ],
            [
              648.75,
              407.5
            ],
            [
              639.0,
              407.75
            ]
          ]
        ]
      }
    },
    {
      "type": "Feature",
      "properties": {
        "id": 12
      },
      "geometry": {
        "type": "Polygon",
        "coordinates": [
          [
            [
              634.0,
              433.5
            ],
            [
              634.5,
              442.5
            ],
            [
              648.5,
              442.25
            ],
            [
              648.5,
              433.25
            ],
            [
              634.0,
              433.5
            ]
          ]
        ]
      }
    },
    {
      "type": "Feature",
      "properties": {
        "id": 13
      },
      "geometry": {
        "type": "Polygon",
        "coordinates": [
          [
            [
              461.5,
              434.5
            ],
            [
              461.75,
              441.0
            ],
            [
              481.0,
              440.75
            ],
            [
              480.75,
              433.75
            ],
            [
              461.5,
              434.5
            ]
          ]
        ]
      }
    },
    {
      "type": "Feature",
      "properties": {
        "id": 14
      },
      "geometry": {
        "type": "Polygon",
        "coordinates": [
          [
            [
              468.75,
              470.5
            ],
            [
              469.0,
              477.25
            ],
            [
              494.75,
              477.0
            ],
            [
              494.25,
              470.0
            ],
            [
              468.75,
              470.5
            ]
          ]
        ]
      }
    },
    {
      "type": "Feature",
      "properties": {
        "id": 15
      },
      "geometry": {
        "type": "Polygon",
        "coordinates": [
          [
            [
              560.5,
              475.25
            ],
            [
              560.5,
              476.75
            ],
            [
              561.75,
              476.75
            ],
            [
              561.75,
              475.25
            ],
            [
              560.5,
              475.25
            ]
          ]
        ]
      }
    },
    {
      "type": "Feature",
      "properties": {
        "id": 16
      },
      "geometry": {
        "type": "Polygon",
        "coordinates": [
          [
            [
              699.25,
              480.5
            ],
            [
              688.75,
              487.0
            ],
            [
              685.75,
              499.25
            ],
            [
              692.75,
              510.5
            ],
            [
              704.75,
              513.25
            ],
            [
              715.75,
              506.5
            ],
            [
              718.5,
              493.75
            ],
            [
              711.75,
              483.25
            ],
            [
              699.25,
              480.5
            ]
          ]
        ]
      }
    },
    {
      "type": "Feature",
      "properties": {
        "id": 17
      },
      "geometry": {
        "type": "Polygon",
        "coordinates": [
          [
            [
              560.5,
              483.0
            ],
            [
              560.5,
              484.5
            ],
            [
              561.75,
              484.5
            ],
            [
              561.75,
              483.0
            ],
            [
              560.5,
              483.0
            ]
          ]
        ]
      }
    },
    {
      "type": "Feature",
      "properties": {
        "id": 18
      },
      "geometry": {
        "type": "Polygon",
        "coordinates": [
          [
            [
              557.25,
              500.75
            ],
            [
              557.5,
              508.0
            ],
            [
              567.75,
              507.5
            ],
            [
              567.5,
              500.75
            ],
            [
              557.25,
              500.75
            ]
          ]
        ]
      }
    }
  ]
}